[{"OBJECT_NAME":"GHGSAT-C12","OBJECT_ID":"2025-135B","EPOCH":"2026-03-09T21:42:54.844416","MEAN_MOTION":15.19558972,"ECCENTRICITY":0.0005838,"INCLINATION":97.4617,"RA_OF_ASC_NODE":184.7149,"ARG_OF_PERICENTER":147.3031,"MEAN_ANOMALY":212.8566,"EPHEMERIS_TYPE":0,"CLASSIFICATION_TYPE":"U","NORAD_CAT_ID":64529,"ELEMENT_SET_NO":999,"REV_AT_EPOCH":3974,"BSTAR":0.00022956142,"MEAN_MOTION_DOT":4.815e-5,"MEAN_MOTION_DDOT":0},{"OBJECT_NAME":"OBJECT H","OBJECT_ID":"2026-023H","EPOCH":"2026-03-09T17:12:47.154816","MEAN_MOTION":15.23139098,"ECCENTRICITY":0.00239537,"INCLINATION":96.639,"RA_OF_ASC_NODE":144.1723,"ARG_OF_PERICENTER":117.6533,"MEAN_ANOMALY":242.7142,"EPHEMERIS_TYPE":0,"CLASSIFICATION_TYPE":"U","NORAD_CAT_ID":67681,"ELEMENT_SET_NO":999,"REV_AT_EPOCH":484,"BSTAR":0.00052586846,"MEAN_MOTION_DOT":0.00012465,"MEAN_MOTION_DDOT":0}]
